ION SCV-004             
1 50993U 22002K   26068.68892644  .00006538  00000+0  23198-3 0  9998
2 50993  97.2961 128.2294 0007216   1.6783 358.4480 15.29369331230088
STARLINK-30533          
1 58037U 23156K   26068.56779664  .00020354  00000+0  69771-3 0  9998
2 58037  53.1581 168.7677 0001151  90.5230 269.5902 15.30188896135019
